{"type": "FeatureCollection", "features": [ {"type": "Feature", "properties": {"norad_id": 37834, "name": "INTELSAT 18 (IS-18)", "group": "intelsat", "lat": -0.01738833014671724, "lon": 174.1591937275679, "alt_km": 35787.96249732856, "timestamp": "2025-12-17T17:50:18.919789+00:00", "meta": {"OBJECT_NAME": "INTELSAT 18 (IS-18)", "OBJECT_ID": "2011-056A", "EPOCH": "2025-12-17T03:54:31.701024", "MEAN_MOTION": 1.00271964, "ECCENTRICITY": 0.00017331, "INCLINATION": 0.0128, "RA_OF_ASC_NODE": 305.3818, "ARG_OF_PERICENTER": 334.5403, "MEAN_ANOMALY": 44.7489, "EPHEMERIS_TYPE": 0, "CLASSIFICATION_TYPE": "U", "NORAD_CAT_ID": 37834, "ELEMENT_SET_NO": 999, "REV_AT_EPOCH": 5198, "BSTAR": 0, "MEAN_MOTION_DOT": 7.7e-07, "MEAN_MOTION_DDOT": 0}, "tle": {"line1": "1 37834U 11056A   25351.16286691  .00000077  00000+0  00000+0 0  9995", "line2": "2 37834   0.0128 305.3818 0001733 334.5403  44.7489  1.00271964 51981"}}, "geometry": {"type": "Point", "coordinates": [174.1591937275679, -0.01738833014671724]}}, {"type": "Feature", "properties": {"norad_id": 38098, "name": "INTELSAT 22 (IS-22)", "group": "intelsat", "lat": 0.02918776452136691, "lon": 66.29310877643685, "alt_km": 35792.361221303676, "timestamp": "2025-12-17T17:50:18.919801+00:00", "meta": {"OBJECT_NAME": "INTELSAT 22 (IS-22)", "OBJECT_ID": "2012-011A", "EPOCH": "2025-12-17T03:23:49.641792", "MEAN_MOTION": 1.00270594, "ECCENTRICITY": 0.00018755, "INCLINATION": 0.0421, "RA_OF_ASC_NODE": 54.6207, "ARG_OF_PERICENTER": 233.2007, "MEAN_ANOMALY": 281.2568, "EPHEMERIS_TYPE": 0, "CLASSIFICATION_TYPE": "U", "NORAD_CAT_ID": 38098, "ELEMENT_SET_NO": 999, "REV_AT_EPOCH": 536, "BSTAR": 0, "MEAN_MOTION_DOT": 0, "MEAN_MOTION_DDOT": 0}, "tle": {"line1": "1 38098U 12011A   25351.14154678  .00000000  00000+0  00000+0 0  9993", "line2": "2 38098   0.0421  54.6207 0001875 233.2007 281.2568  1.00270594  5363"}}, "geometry": {"type": "Point", "coordinates": [66.29310877643685, 0.02918776452136691]}}, {"type": "Feature", "properties": {"norad_id": 38356, "name": "INTELSAT 19 (IS-19)", "group": "intelsat", "lat": 0.0009114433085724652, "lon": 160.1641327690497, "alt_km": 35791.805153958536, "timestamp": "2025-12-17T17:50:18.919813+00:00", "meta": {"OBJECT_NAME": "INTELSAT 19 (IS-19)", "OBJECT_ID": "2012-030A", "EPOCH": "2025-12-17T05:21:51.620832", "MEAN_MOTION": 1.00272069, "ECCENTRICITY": 0.00031924, "INCLINATION": 0.0079, "RA_OF_ASC_NODE": 340.9294, "ARG_OF_PERICENTER": 294.8311, "MEAN_ANOMALY": 56.8222, "EPHEMERIS_TYPE": 0, "CLASSIFICATION_TYPE": "U", "NORAD_CAT_ID": 38356, "ELEMENT_SET_NO": 999, "REV_AT_EPOCH": 4862, "BSTAR": 0, "MEAN_MOTION_DOT": -3.2e-07, "MEAN_MOTION_DDOT": 0}, "tle": {"line1": "1 38356U 12030A   25351.22351413 -.00000032  00000+0  00000+0 0  9992", "line2": "2 38356   0.0079 340.9294 0003192 294.8311  56.8222  1.00272069 48629"}}, "geometry": {"type": "Point", "coordinates": [160.1641327690497, 0.0009114433085724652]}}, {"type": "Feature", "properties": {"norad_id": 38740, "name": "INTELSAT 20 (IS-20)", "group": "intelsat", "lat": 0.005991506240989089, "lon": 62.65766985770812, "alt_km": 35792.212614052005, "timestamp": "2025-12-17T17:50:18.919825+00:00", "meta": {"OBJECT_NAME": "INTELSAT 20 (IS-20)", "OBJECT_ID": "2012-043A", "EPOCH": "2025-12-17T00:05:38.746752", "MEAN_MOTION": 1.00274173, "ECCENTRICITY": 0.00029469, "INCLINATION": 0.0123, "RA_OF_ASC_NODE": 89.4199, "ARG_OF_PERICENTER": 96.5748, "MEAN_ANOMALY": 329.8002, "EPHEMERIS_TYPE": 0, "CLASSIFICATION_TYPE": "U", "NORAD_CAT_ID": 38740, "ELEMENT_SET_NO": 999, "REV_AT_EPOCH": 4892, "BSTAR": 0, "MEAN_MOTION_DOT": -1e-08, "MEAN_MOTION_DDOT": 0}, "tle": {"line1": "1 38740U 12043A   25351.00392068 -.00000001  00000+0  00000+0 0  9996", "line2": "2 38740   0.0123  89.4199 0002946  96.5748 329.8002  1.00274173 48922"}}, "geometry": {"type": "Point", "coordinates": [62.65766985770812, 0.005991506240989089]}}, {"type": "Feature", "properties": {"norad_id": 38749, "name": "INTELSAT 21 (IS-21)", "group": "intelsat", "lat": -0.03574244995659394, "lon": -63.77709798290979, "alt_km": 35780.39928005146, "timestamp": "2025-12-17T17:50:18.919837+00:00", "meta": {"OBJECT_NAME": "INTELSAT 21 (IS-21)", "OBJECT_ID": "2012-045A", "EPOCH": "2025-12-16T09:39:21.104640", "MEAN_MOTION": 1.00275644, "ECCENTRICITY": 0.00014741, "INCLINATION": 0.0368, "RA_OF_ASC_NODE": 79.4307, "ARG_OF_PERICENTER": 176.2803, "MEAN_ANOMALY": 276.4325, "EPHEMERIS_TYPE": 0, "CLASSIFICATION_TYPE": "U", "NORAD_CAT_ID": 38749, "ELEMENT_SET_NO": 999, "REV_AT_EPOCH": 4869, "BSTAR": 0, "MEAN_MOTION_DOT": -2.61e-06, "MEAN_MOTION_DDOT": 0}, "tle": {"line1": "1 38749U 12045A   25350.40232760 -.00000261  00000+0  00000+0 0  9990", "line2": "2 38749   0.0368  79.4307 0001474 176.2803 276.4325  1.00275644 48698"}}, "geometry": {"type": "Point", "coordinates": [-63.77709798290979, -0.03574244995659394]}}, {"type": "Feature", "properties": {"norad_id": 38867, "name": "INTELSAT 23 (IS-23)", "group": "intelsat", "lat": -0.0329452279323379, "lon": -58.76651666868568, "alt_km": 35784.79075460848, "timestamp": "2025-12-17T17:50:18.919850+00:00", "meta": {"OBJECT_NAME": "INTELSAT 23 (IS-23)", "OBJECT_ID": "2012-057A", "EPOCH": "2025-12-16T09:40:50.962368", "MEAN_MOTION": 1.00276027, "ECCENTRICITY": 4.125e-05, "INCLINATION": 0.0417, "RA_OF_ASC_NODE": 95.2831, "ARG_OF_PERICENTER": 124.0894, "MEAN_ANOMALY": 318.1615, "EPHEMERIS_TYPE": 0, "CLASSIFICATION_TYPE": "U", "NORAD_CAT_ID": 38867, "ELEMENT_SET_NO": 999, "REV_AT_EPOCH": 4812, "BSTAR": 0, "MEAN_MOTION_DOT": -2.61e-06, "MEAN_MOTION_DDOT": 0}, "tle": {"line1": "1 38867U 12057A   25350.40336762 -.00000261  00000+0  00000+0 0  9991", "line2": "2 38867   0.0417  95.2831 0000412 124.0894 318.1615  1.00276027 48124"}}, "geometry": {"type": "Point", "coordinates": [-58.76651666868568, -0.0329452279323379]}}, {"type": "Feature", "properties": {"norad_id": 39360, "name": "FM-6", "group": "intelsat", "lat": -0.01213707350316757, "lon": -121.94976900134341, "alt_km": 35780.625405201325, "timestamp": "2025-12-17T17:50:18.919861+00:00", "meta": {"OBJECT_NAME": "FM-6", "OBJECT_ID": "2013-058A", "EPOCH": "2025-12-17T07:03:19.257696", "MEAN_MOTION": 1.00269599, "ECCENTRICITY": 0.00029092, "INCLINATION": 0.0104, "RA_OF_ASC_NODE": 61.1526, "ARG_OF_PERICENTER": 116.5463, "MEAN_ANOMALY": 258.1465, "EPHEMERIS_TYPE": 0, "CLASSIFICATION_TYPE": "U", "NORAD_CAT_ID": 39360, "ELEMENT_SET_NO": 999, "REV_AT_EPOCH": 4424, "BSTAR": 0, "MEAN_MOTION_DOT": 8e-08, "MEAN_MOTION_DDOT": 0}, "tle": {"line1": "1 39360U 13058A   25351.29397289  .00000008  00000+0  00000+0 0  9999", "line2": "2 39360   0.0104  61.1526 0002909 116.5463 258.1465  1.00269599 44241"}}, "geometry": {"type": "Point", "coordinates": [-121.94976900134341, -0.01213707350316757]}}, {"type": "Feature", "properties": {"norad_id": 40271, "name": "INTELSAT 30 (IS-30)", "group": "intelsat", "lat": -0.03411463689989795, "lon": -100.86898944657428, "alt_km": 35792.93754027186, "timestamp": "2025-12-17T17:50:18.919873+00:00", "meta": {"OBJECT_NAME": "INTELSAT 30 (IS-30)", "OBJECT_ID": "2014-062A", "EPOCH": "2025-12-17T04:43:38.845632", "MEAN_MOTION": 1.00271123, "ECCENTRICITY": 0.00015749, "INCLINATION": 0.0149, "RA_OF_ASC_NODE": 23.0369, "ARG_OF_PERICENTER": 61.3258, "MEAN_ANOMALY": 337.5745, "EPHEMERIS_TYPE": 0, "CLASSIFICATION_TYPE": "U", "NORAD_CAT_ID": 40271, "ELEMENT_SET_NO": 999, "REV_AT_EPOCH": 496, "BSTAR": 0, "MEAN_MOTION_DOT": -1.26e-06, "MEAN_MOTION_DDOT": 0}, "tle": {"line1": "1 40271U 14062A   25351.19697738 -.00000126  00000+0  00000+0 0  9991", "line2": "2 40271   0.0149  23.0369 0001574  61.3258 337.5745  1.00271123  4965"}}, "geometry": {"type": "Point", "coordinates": [-100.86898944657428, -0.03411463689989795]}}, {"type": "Feature", "properties": {"norad_id": 40333, "name": "DIRECTV 14", "group": "intelsat", "lat": -0.026911948847508495, "lon": -105.03333746260495, "alt_km": 35786.57885101523, "timestamp": "2025-12-17T17:50:18.919884+00:00", "meta": {"OBJECT_NAME": "DIRECTV 14", "OBJECT_ID": "2014-078B", "EPOCH": "2025-12-16T21:26:45.259296", "MEAN_MOTION": 1.00272088, "ECCENTRICITY": 4.062e-05, "INCLINATION": 0.0021, "RA_OF_ASC_NODE": 2.4661, "ARG_OF_PERICENTER": 143.6123, "MEAN_ANOMALY": 162.1671, "EPHEMERIS_TYPE": 0, "CLASSIFICATION_TYPE": "U", "NORAD_CAT_ID": 40333, "ELEMENT_SET_NO": 999, "REV_AT_EPOCH": 4021, "BSTAR": 0, "MEAN_MOTION_DOT": -1.01e-06, "MEAN_MOTION_DDOT": 0}, "tle": {"line1": "1 40333U 14078B   25350.89357939 -.00000101  00000+0  00000+0 0  9992", "line2": "2 40333   0.0021   2.4661 0000406 143.6123 162.1671  1.00272088 40216"}}, "geometry": {"type": "Point", "coordinates": [-105.03333746260495, -0.026911948847508495]}}, {"type": "Feature", "properties": {"norad_id": 40663, "name": "DIRECTV 15", "group": "intelsat", "lat": -0.01639730741746948, "lon": -108.70375178576693, "alt_km": 35787.48835840493, "timestamp": "2025-12-17T17:50:18.919896+00:00", "meta": {"OBJECT_NAME": "DIRECTV 15", "OBJECT_ID": "2015-026A", "EPOCH": "2025-12-16T14:34:45.316416", "MEAN_MOTION": 1.0026971, "ECCENTRICITY": 2.235e-05, "INCLINATION": 0.0412, "RA_OF_ASC_NODE": 83.857, "ARG_OF_PERICENTER": 316.6385, "MEAN_ANOMALY": 160.8127, "EPHEMERIS_TYPE": 0, "CLASSIFICATION_TYPE": "U", "NORAD_CAT_ID": 40663, "ELEMENT_SET_NO": 999, "REV_AT_EPOCH": 3863, "BSTAR": 0, "MEAN_MOTION_DOT": -7.8e-07, "MEAN_MOTION_DDOT": 0}, "tle": {"line1": "1 40663U 15026A   25350.60746894 -.00000078  00000+0  00000+0 0  9996", "line2": "2 40663   0.0412  83.8570 0000223 316.6385 160.8127  1.00269710 38639"}}, "geometry": {"type": "Point", "coordinates": [-108.70375178576693, -0.01639730741746948]}}]}